     2.100          NAVIGATION                              RINEX VERSION / TYPE
fic2rin                                 03/30/2012 00:21:18 PGM / RUN BY / DATE
                                                            END OF HEADER
13 12  3 29  6  0  0.0  .216695480049D-03 -.227373675443D-11  .000000000000D+00
     .720000000000D+02  .580000000000D+02  .390051961516D-08  .304844565026D+01
     .306963920593D-05  .491612358019D-02  .514835119247D-05  .515369740105D+04
     .367200000000D+06  .223517417908D-07  .208233734196D+01  .428408384323D-07
     .986167763469D+00  .293437500000D+03  .195422044350D+01 -.780961101593D-08
     .425017703693D-10  .100000000000D+01  .168100000000D+04  .000000000000D+00
     .240000000000D+01  .000000000000D+00 -.111758708954D-07  .720000000000D+02
     .360006000000D+06  .400000000000D+01
14 12  3 29  6  0  0.0  .198525376618D-03  .113686837722D-11  .000000000000D+00
     .700000000000D+02  .698125000000D+02  .396266506091D-08  .312444362859D+01
     .362843275070D-05  .616752787028D-02  .574067234993D-05  .515357337570D+04
     .367200000000D+06  .204890966415D-07  .205603972468D+01 -.651925802231D-07
     .979028253645D+00  .277062500000D+03 -.205831943528D+01 -.781389690874D-08
     .136077096729D-09  .100000000000D+01  .168100000000D+04  .000000000000D+00
     .240000000000D+01  .000000000000D+00 -.884756445885D-08  .700000000000D+02
     .360006000000D+06  .400000000000D+01
15 12  3 29  6  0  0.0 -.916779972613D-04  .227373675443D-12  .000000000000D+00
     .930000000000D+02  .826250000000D+02  .484734476851D-08  .264752866868D+01
     .426732003689D-05  .438115606084D-02  .554695725441D-05  .515379158783D+04
     .367200000000D+06 -.298023223877D-07  .197015016578D+01  .372529029846D-08
     .945886634535D+00  .264687500000D+03  .660231825877D-01 -.832070373357D-08
     .814319633967D-10  .100000000000D+01  .168100000000D+04  .000000000000D+00
     .240000000000D+01  .000000000000D+00 -.102445483208D-07  .930000000000D+02
     .360006000000D+06  .400000000000D+01
16 12  3 29  6  0  0.0 -.229267403483D-03 -.147792889038D-11  .000000000000D+00
     .380000000000D+02 -.577500000000D+02  .407445543171D-08 -.179360050869D+01
    -.324659049511D-05  .658665760420D-02  .838190317154D-05  .515364271545D+04
     .367200000000D+06 -.242143869400D-07 -.215621741868D+01 -.121071934700D-06
     .979844115743D+00  .229718750000D+03 -.596174271223D-01 -.778925302508D-08
     .242152943785D-09  .100000000000D+01  .168100000000D+04  .000000000000D+00
     .240000000000D+01  .000000000000D+00 -.977888703346D-08  .380000000000D+02
     .360006000000D+06  .400000000000D+01
18 12  3 29  6  0  0.0  .188404694200D-03  .181898940355D-11  .000000000000D+00
     .170000000000D+02  .461562500000D+02  .509306928964D-08 -.129896138778D+01
     .239722430706D-05  .129931763513D-01  .898912549019D-05  .515367978287D+04
     .367200000000D+06  .337138772011D-06  .954350132034D+00  .135973095894D-06
     .930272874765D+00  .190187500000D+03 -.219060916565D+01 -.822855703814D-08
    -.319656172105D-09  .100000000000D+01  .168100000000D+04  .000000000000D+00
     .240000000000D+01  .000000000000D+00 -.107102096081D-07  .170000000000D+02
     .360006000000D+06  .400000000000D+01
19 12  3 29  6  0  0.0 -.250207260251D-03 -.375166564481D-11  .000000000000D+00
     .840000000000D+02 -.114062500000D+02  .473948313278D-08  .267995822119D+01
    -.558793544769D-06  .807089335285D-02  .743754208088D-05  .515376583099D+04
     .367200000000D+06 -.199303030968D-06 -.106182841483D+01 -.391155481339D-07
     .959806117194D+00  .236625000000D+03  .143280054589D+00 -.796676041898D-08
     .253581991279D-09  .100000000000D+01  .168100000000D+04  .000000000000D+00
     .240000000000D+01  .000000000000D+00 -.144354999065D-07  .840000000000D+02
     .360006000000D+06  .400000000000D+01
20 12  3 29  6  0  0.0  .632652081549D-04 -.113686837722D-12  .000000000000D+00
     .890000000000D+02  .425937500000D+02  .512735643212D-08 -.938927852148D+00
     .219978392124D-05  .510324549396D-02  .888109207153D-05  .515373871613D+04
     .367200000000D+06 -.372529029846D-07  .900583056213D+00  .128522515297D-06
     .930724326895D+00  .192250000000D+03  .129107423758D+01 -.835534803378D-08
    -.234295473633D-09  .100000000000D+01  .168100000000D+04  .000000000000D+00
     .240000000000D+01  .000000000000D+00 -.791624188423D-08  .890000000000D+02
     .360006000000D+06  .400000000000D+01
21 12  3 29  6  0  0.0 -.213740859181D-03 -.250111042988D-11  .000000000000D+00
     .840000000000D+02 -.515625000000D+01  .553237330270D-08 -.244825911993D+00
    -.178813934326D-06  .188723452156D-01  .694394111633D-05  .515362680817D+04
     .367200000000D+06 -.167638063431D-07 -.967050088146D-01  .234693288803D-06
     .931807288577D+00  .229437500000D+03 -.227391137399D+01 -.877822279107D-08
    -.230366738556D-09  .100000000000D+01  .168100000000D+04  .000000000000D+00
     .240000000000D+01  .000000000000D+00 -.111758708954D-07  .840000000000D+02
     .360006000000D+06  .400000000000D+01
22 12  3 29  6  0  0.0  .143167097121D-03  .227373675443D-12  .000000000000D+00
     .950000000000D+02  .403437500000D+02  .503199531709D-08 -.213588955022D+01
     .201351940632D-05  .585113209672D-02  .916607677937D-05  .515368476677D+04
     .367200000000D+06  .540167093277D-07  .957849818290D+00 -.132247805595D-06
     .927986674667D+00  .185718750000D+03 -.201129725298D+01 -.810105172704D-08
    -.266082511976D-09  .100000000000D+01  .168100000000D+04  .000000000000D+00
     .340000000000D+01  .000000000000D+00 -.167638063431D-07  .950000000000D+02
     .360006000000D+06  .400000000000D+01
23 12  3 29  6  0  0.0  .219882931560D-03 -.352429196937D-11  .000000000000D+00
     .640000000000D+02  .601562500000D+02  .448482966830D-08  .226261321085D+01
     .317208468914D-05  .766465568449D-02  .538863241673D-05  .515365768242D+04
     .367200000000D+06 -.145286321640D-06  .200500169475D+01  .968575477600D-07
     .960597488581D+00  .276468750000D+03 -.302781843220D+01 -.814569644381D-08
     .178578867098D-10  .100000000000D+01  .168100000000D+04  .000000000000D+00
     .240000000000D+01  .000000000000D+00 -.200234353542D-07  .640000000000D+02
     .360006000000D+06  .400000000000D+01
25 12  3 29  6  0  0.0  .325641594827D-04  .227373675443D-12  .000000000000D+00
     .680000000000D+02 -.710625000000D+02  .434053794369D-08 -.666399541164D+00
    -.365450978279D-05  .143940863200D-02  .810250639915D-05  .515374279785D+04
     .367200000000D+06  .353902578354D-07 -.220771446696D+01  .242143869400D-07
     .967856030197D+00  .229312500000D+03  .600775631345D+00 -.796568894578D-08
     .114290474943D-09  .100000000000D+01  .168100000000D+04  .000000000000D+00
     .240000000000D+01  .000000000000D+00  .558793544769D-08  .680000000000D+02
     .360006000000D+06  .400000000000D+01
26 12  3 29  6  0  0.0 -.225009862334D-03 -.551381162950D-10  .000000000000D+00
     .230000000000D+02  .683437500000D+02  .387623288923D-08  .212092724689D+01
     .319257378578D-05  .209384707268D-01  .505894422531D-05  .515366152763D+04
     .367200000000D+06  .137835741043D-06  .207649322708D+01 -.428408384323D-06
     .983718519688D+00  .292843750000D+03  .118220330797D+01 -.773996525776D-08
     .134291308058D-09  .100000000000D+01  .168100000000D+04  .000000000000D+00
     .240000000000D+01  .000000000000D+00 -.605359673500D-08  .230000000000D+02
     .360006000000D+06  .400000000000D+01
27 12  3 29  6  0  0.0  .371693167835D-03  .386535248253D-11  .000000000000D+00
     .320000000000D+02 -.277187500000D+02  .405588322953D-08  .305158309752D+01
    -.146403908730D-05  .218144989340D-01  .381469726562D-05  .515375889587D+04
     .367200000000D+06  .227242708206D-06  .300036668959D+01  .314787030220D-06
     .982185593664D+00  .311468750000D+03 -.110451833201D+01 -.777139513837D-08
    -.417874549009D-10  .100000000000D+01  .168100000000D+04  .000000000000D+00
     .340000000000D+01  .000000000000D+00 -.419095158577D-08  .320000000000D+02
     .360006000000D+06  .400000000000D+01
29 12  3 29  6  0  0.0  .298218335956D-03  .352429196937D-11  .000000000000D+00
     .103000000000D+03 -.179062500000D+02  .473448292450D-08  .115046057502D-01
    -.812113285065D-06  .231635523960D-02  .774860382080D-05  .515360666847D+04
     .367200000000D+06  .242143869400D-07 -.110650477873D+01  .149011611938D-07
     .962914686450D+00  .234343750000D+03 -.116707606940D+01 -.807890794752D-08
     .288226291496D-09  .100000000000D+01  .168100000000D+04  .000000000000D+00
     .340000000000D+01  .000000000000D+00 -.931322574615D-08  .103000000000D+03
     .360006000000D+06  .400000000000D+01
30 12  3 29  6  0  0.0 -.105199404061D-03 -.180762071977D-10  .000000000000D+00
     .220000000000D+02 -.628437500000D+02  .447232914760D-08 -.291322997547D+01
    -.342726707458D-05  .109237713041D-01  .732392072678D-05  .515363520813D+04
     .367200000000D+06  .167638063431D-06 -.229805199463D+01  .204890966415D-07
     .959162829690D+00  .233406250000D+03  .155473419287D+01 -.785282710177D-08
     .150006248362D-09  .100000000000D+01  .168100000000D+04  .000000000000D+00
     .485000000000D+01  .000000000000D+00 -.419095158577D-08  .220000000000D+02
     .360006000000D+06  .400000000000D+01
31 12  3 29  6  0  0.0  .224985182285D-03  .443378667114D-11  .000000000000D+00
     .670000000000D+02 -.284687500000D+02  .415410160643D-08  .665552692998D+00
    -.149570405483D-05  .792739458848D-02  .443682074547D-05  .515361747169D+04
     .367200000000D+06  .149011611938D-07  .305587607305D+01 -.117346644402D-06
     .981037943208D+00  .301500000000D+03 -.878038568436D+00 -.814426781287D-08
    -.178578867098D-11  .100000000000D+01  .168100000000D+04  .000000000000D+00
     .240000000000D+01  .000000000000D+00 -.130385160446D-07  .670000000000D+02
     .360006000000D+06  .400000000000D+01
